IONOSFERA-M 3           
1 64876U 25155A   26190.84057747  .00000028  00000+0  32208-4 0  9997
2 64876  98.6036 152.1768 0002118 120.5331 239.6056 14.21490247 49628
IONOSFERA-M 4           
1 64877U 25155B   26190.80499185  .00000029  00000+0  32862-4 0  9997
2 64877  98.6035 152.0592 0001730 105.0292 255.1077 14.21492688 49611
MICROCARB               
1 64899U 25156A   26190.70804272  .00000340  00000+0  60786-4 0  9990
2 64899  98.0075 267.4872 0017187 188.1611 171.9319 14.72881364 51284
CO3D 3                  
1 64900U 25156B   26190.69903058  .00003144  00000+0  14825-3 0  9990
2 64900  97.4335 269.0683 0001854 100.3214 259.8230 15.20209370 52954
CO3D 4                  
1 64901U 25156C   26190.69918213  .00000887  00000+0  44088-4 0  9996
2 64901  97.4337 269.0684 0001186 162.6050 197.5226 15.20203063 52951
CO3D 2                  
1 64902U 25156D   26190.73165433  .00002635  00000+0  12482-3 0  9995
2 64902  97.4334 268.9994 0001329  87.2074 272.9313 15.20193716 52956
CO3D 1                  
1 64903U 25156E   26190.73180907  .00002696  00000+0  12764-3 0  9999
2 64903  97.4334 268.9995 0001280  98.7407 261.3973 15.20197112 52959
PRSC-S1                 
1 65055U 25164A   26190.80375593  .00002327  00000+0  16609-3 0  9995
2 65055  41.1290 160.4182 0005823 161.4992 198.6034 15.06608680 51841
SENTINEL-6B             
1 66514U 25264A   26190.18132107 -.00000071  00000+0 -42009-4 0  9990
2 66514  66.0415  89.4979 0007882 268.8305  91.1807 12.80930087 29981
CAS500-3                
1 66655U 25274F   26189.79608866  .00000933  00000+0  10657-3 0  9990
2 66655  97.7440 117.3557 0006665  55.1765 305.0078 14.88374289 33364
CSG-3                   
1 67304U 26001A   26190.74755735  .00000204  00000+0  32153-4 0  9993
2 67304  97.8893  14.0231 0001499  92.4764 267.6621 14.82149656 27805
PRSC-E03                
1 68835U 26092A   26190.78725292  .00001887  00000+0  13154-3 0  9999
2 68835  38.0024 316.4023 0004354 216.9149 143.1313 15.06792698 11366
CAS500-2                
1 69013U 26100AK  26190.78746279  .00004548  00000+0  20890-3 0  9998
2 69013  97.3877  88.2163 0008131 314.7056  45.3516 15.20862515 10245
